[{"OBJECT_NAME":"STARLINK-35893","OBJECT_ID":"2025-268J","EPOCH":"2026-03-09T04:14:12.463296","MEAN_MOTION":15.2758527,"ECCENTRICITY":0.00017748,"INCLINATION":43.0028,"RA_OF_ASC_NODE":349.7575,"ARG_OF_PERICENTER":257.0329,"MEAN_ANOMALY":103.0325,"EPHEMERIS_TYPE":0,"CLASSIFICATION_TYPE":"U","NORAD_CAT_ID":66565,"ELEMENT_SET_NO":999,"REV_AT_EPOCH":1788,"BSTAR":0.0010110269,"MEAN_MOTION_DOT":0.00027668,"MEAN_MOTION_DDOT":0},{"OBJECT_NAME":"CZ-6A DEB","OBJECT_ID":"2022-151ME","EPOCH":"2026-03-09T17:07:50.636064","MEAN_MOTION":15.20556855,"ECCENTRICITY":0.00283971,"INCLINATION":98.6182,"RA_OF_ASC_NODE":149.2426,"ARG_OF_PERICENTER":178.5587,"MEAN_ANOMALY":181.5732,"EPHEMERIS_TYPE":0,"CLASSIFICATION_TYPE":"U","NORAD_CAT_ID":54578,"ELEMENT_SET_NO":999,"REV_AT_EPOCH":10518,"BSTAR":0.0077423675,"MEAN_MOTION_DOT":0.00175116,"MEAN_MOTION_DDOT":0}]
